OBJECT_NAME,OBJECT_ID,EPOCH,MEAN_MOTION,ECCENTRICITY,INCLINATION,RA_OF_ASC_NODE,ARG_OF_PERICENTER,MEAN_ANOMALY,EPHEMERIS_TYPE,CLASSIFICATION_TYPE,NORAD_CAT_ID,ELEMENT_SET_NO,REV_AT_EPOCH,BSTAR,MEAN_MOTION_DOT,MEAN_MOTION_DDOT
STARLINK-37322,2026-081S,2026-07-08T09:45:22.768128,15.34382992,.00009979,53.1582,192.0532,76.3042,283.8072,0,U,68715,999,1324,.10499939E-3,.3171E-4,0
STARLINK-36337,2026-081T,2026-07-08T09:42:21.604608,15.34403310,.0000842,53.1581,192.0601,83.6951,276.4147,0,U,68716,999,1324,.40832245E-3,.13446E-3,0
STARLINK-36685,2026-081U,2026-07-08T06:31:44.414112,15.34400516,.00011852,53.1590,192.6399,95.2484,264.8654,0,U,68717,999,1322,.39338931E-3,.12938E-3,0
STARLINK-36684,2026-081V,2026-07-07T00:46:35.186880,15.34377523,.00009069,53.1573,198.4062,83.7055,276.4051,0,U,68718,999,1303,.68466842E-3,.2281E-3,0
STARLINK-36686,2026-081W,2026-07-08T00:07:28.073856,15.34405913,.00013478,53.1588,193.8156,89.6589,270.4568,0,U,68719,999,1318,.53563858E-3,.17767E-3,0
STARLINK-36681,2026-081X,2026-07-07T23:58:23.410848,15.34388726,.00021698,53.1575,193.7809,89.8772,270.2480,0,U,68720,999,1318,.31536927E-3,.1029E-3,0
STARLINK-36680,2026-081Y,2026-07-08T09:27:11.899872,15.34426154,.00011795,53.1582,191.9747,54.5873,305.5240,0,U,68721,999,1324,.64610364E-3,.21534E-3,0
STARLINK-37271,2026-081Z,2026-07-08T09:24:10.852128,15.34399387,.00001918,53.1578,191.9584,102.8461,257.2563,0,U,68722,999,1324,.368919E-3,.12109E-3,0
STARLINK-37273,2026-081AA,2026-07-08T06:25:41.082240,15.34400354,.00012672,53.1589,192.6187,68.2531,291.8606,0,U,68723,999,1322,.3669265E-3,.12041E-3,0
STARLINK-37274,2026-081AB,2026-07-08T09:18:07.469280,15.34403830,.00014415,53.1579,191.9321,69.9720,290.1437,0,U,68724,999,1324,.53658739E-3,.17798E-3,0
STARLINK-37275,2026-081AC,2026-07-08T09:12:02.222784,15.34422115,.0000816,53.1594,191.9241,126.2268,233.8810,0,U,68725,999,1324,.44475512E-3,.14691E-3,0
STARLINK-37272,2026-081AD,2026-07-08T09:15:05.917824,15.34396670,.00012442,53.1575,191.9193,96.6065,263.5079,0,U,68726,999,1324,.33431457E-3,.10934E-3,0
STARLINK-37270,2026-081AE,2026-07-08T09:09:00.738720,15.34385162,.00012131,53.1576,191.9085,90.4796,269.6346,0,U,68727,999,1324,.31449551E-3,.10259E-3,0
STARLINK-37242,2026-082A,2026-07-08T13:22:42.336480,15.33516648,.00012152,97.2861,52.7567,78.3774,281.7606,0,U,68728,999,1297,.8133372E-3,.26334E-3,0
STARLINK-37264,2026-082B,2026-07-08T06:00:20.829312,15.33444538,.00020854,97.2858,52.4063,88.1676,271.9805,0,U,68729,999,1292,.38421484E-3,.12349E-3,0
STARLINK-37230,2026-082C,2026-07-08T02:09:20.848032,15.33438898,.00021727,97.2863,52.3220,104.7628,255.3855,0,U,68730,999,1290,.34870808E-3,.11198E-3,0
STARLINK-37202,2026-082D,2026-07-07T01:52:50.086272,15.33427991,.00014437,97.2863,51.2458,103.0587,257.0817,0,U,68731,999,1274,.43579206E-3,.14013E-3,0
STARLINK-37167,2026-082E,2026-07-08T01:26:15.968256,15.33450727,.00016978,97.2865,52.2072,94.8246,265.3190,0,U,68732,999,1289,.34095739E-3,.1095E-3,0
STARLINK-37278,2026-082F,2026-07-06T15:02:53.190528,15.33423600,.00023802,97.2856,50.9422,110.6004,249.5494,0,U,68733,999,1268,.73760508E-3,.23798E-3,0
STARLINK-37349,2026-082G,2026-07-08T14:21:30.413952,15.33451354,.00022608,97.2855,52.8540,100.2741,259.8756,0,U,68734,999,1298,.37227044E-3,.11965E-3,0
STARLINK-37339,2026-082H,2026-07-08T14:17:35.147616,15.33453894,.00017221,97.2863,52.8556,101.2766,258.8670,0,U,68735,999,1298,.55813969E-3,.17992E-3,0
STARLINK-37327,2026-082J,2026-07-08T09:00:26.387424,15.33450282,.00021986,97.2865,52.5445,84.8485,275.3009,0,U,68736,999,1294,.50913486E-3,.16401E-3,0
STARLINK-37348,2026-082K,2026-07-08T13:30:37.190016,15.33452778,.0002292,97.2881,52.7461,99.1097,261.0406,0,U,68737,999,1297,.49839274E-3,.16054E-3,0
STARLINK-37331,2026-082L,2026-07-08T13:34:31.428192,15.33458030,.00021644,97.2864,52.7412,95.5564,264.5926,0,U,68738,999,1297,.52409626E-3,.1689E-3,0
STARLINK-37338,2026-082M,2026-07-08T00:54:56.916000,15.33447100,.00010476,97.2867,52.2345,39.0545,321.0773,0,U,68739,999,1289,.3808926E-3,.12242E-3,0
STARLINK-37314,2026-082N,2026-07-08T13:14:55.848192,15.33473573,.00019363,97.2879,52.7608,99.0651,261.0811,0,U,68740,999,1297,.60097949E-3,.19395E-3,0
STARLINK-36314,2026-082P,2026-07-08T13:46:15.519936,15.33478010,.00020343,97.2847,52.7325,100.5811,259.5661,0,U,68741,999,1297,.54782683E-3,.17671E-3,0
STARLINK-37351,2026-082Q,2026-07-08T08:36:58.390560,15.33441418,.00020828,97.2870,52.5669,102.4552,257.6924,0,U,68742,999,1294,.37103337E-3,.11921E-3,0
STARLINK-37354,2026-082R,2026-07-08T01:38:00.491136,15.33446567,.00017832,97.2855,52.3494,94.5249,265.6197,0,U,68743,999,1290,.57551436E-3,.18552E-3,0
STARLINK-37344,2026-082S,2026-07-08T08:21:18.386208,15.33439312,.00009179,97.2864,52.5799,105.6971,254.4373,0,U,68744,999,1294,.32533124E-3,.1044E-3,0
STARLINK-37267,2026-082T,2026-07-08T01:34:06.344544,15.33441062,.00013029,97.2859,52.3493,97.8287,262.3103,0,U,68745,999,1290,.30606461E-3,.9817E-4,0
STARLINK-37347,2026-082U,2026-07-08T08:29:07.960704,15.33441807,.00016652,97.2859,52.5721,94.8511,265.2922,0,U,68746,999,1294,.31869417E-3,.10227E-3,0
STARLINK-37268,2026-082V,2026-07-08T01:41:55.067136,15.33487205,.00017019,97.2858,52.3440,81.8469,278.2966,0,U,68747,999,1290,.44865198E-3,.14456E-3,0
STARLINK-37325,2026-082W,2026-07-08T08:56:31.341408,15.33447212,.00018595,97.2873,52.5466,94.4399,265.7056,0,U,68748,999,1294,.42149274E-3,.13558E-3,0
STARLINK-37324,2026-082X,2026-07-08T14:25:25.135968,15.33463765,.00020586,97.2856,52.8527,99.5843,260.5633,0,U,68749,999,1298,.65039731E-3,.20994E-3,0
STARLINK-37350,2026-082Y,2026-07-06T15:00:45.329760,15.33423179,.00017891,97.2854,49.8737,88.9120,271.2327,0,U,68750,999,1261,.46073493E-3,.14819E-3,0
STARLINK-37277,2026-082Z,2026-07-08T14:33:14.863392,15.33457929,.00017607,97.2864,52.8424,97.2982,262.8460,0,U,68751,999,1298,.61436508E-3,.19819E-3,0
STARLINK-37342,2026-082AA,2026-07-08T14:29:19.627296,15.33459009,.00020085,97.2862,52.8445,97.1867,262.9605,0,U,68752,999,1298,.57202792E-3,.18446E-3,0
SL-4 R/B,2026-083A,2026-07-08T07:43:15.559104,15.22741938,.00635962,98.2756,342.7990,155.5845,204.8425,0,U,68753,999,1254,.16519523E-3,.3985E-4,0
COSMOS 2609,2026-083B,2026-07-08T16:23:28.780800,15.07465967,.0011115,98.1248,339.7699,5.9119,354.2237,0,U,68754,999,1246,.12035E-3,.1756E-4,0
COSMOS 2610,2026-083F,2026-07-08T17:22:43.025376,15.06611016,.0010096,97.8079,327.9647,349.1632,10.9376,0,U,68758,999,1244,.12558E-3,.1797E-4,0
COSMOS 2611,2026-083G,2026-07-08T17:43:06.127104,15.06276050,.0011083,97.8136,327.4330,354.8481,5.2629,0,U,68759,999,1243,.137E-3,.1948E-4,0
DAQI-2,2026-084A,2026-07-07T16:43:35.548608,14.57592749,.00030746,98.2863,262.7754,59.2560,300.8941,0,U,68760,999,1188,.14441559E-4,.19E-6,0
COSMOS 2612,2026-083H,2026-07-08T16:46:33.156768,15.07103224,.0012343,97.8563,328.2339,343.6794,16.4034,0,U,68762,999,1244,.97341E-4,.1397E-4,0
COSMOS 2613,2026-083J,2026-07-08T16:18:12.231936,15.05599981,.0006068,97.7826,327.9508,283.5965,76.4585,0,U,68763,999,1244,.12153E-3,.1688E-4,0
COSMOS 2614,2026-083K,2026-07-08T17:27:24.082848,15.05869921,.000524,97.7804,327.1241,312.6244,47.4540,0,U,68764,999,1244,.15458E-3,.2181E-4,0
STARLINK-37168,2026-086A,2026-07-08T14:05:20.562720,15.33465739,.00006204,97.2819,226.1622,202.2637,157.8579,0,U,68766,999,1236,.40866884E-3,.1315E-3,0
STARLINK-37174,2026-086B,2026-07-08T14:01:26.015232,15.33463354,.000297,97.2851,226.0130,93.8838,266.2745,0,U,68767,999,1235,.65242238E-3,.21061E-3,0
STARLINK-37279,2026-086C,2026-07-08T09:11:42.210816,15.33469721,.00008081,97.2840,225.8262,91.8576,268.2759,0,U,68768,999,1232,.55302683E-3,.17835E-3,0
STARLINK-36379,2026-086D,2026-07-08T01:25:47.280000,15.33463801,.00011311,97.2850,225.4980,55.9049,304.2301,0,U,68769,999,1227,.38048576E-3,.12236E-3,0
STARLINK-37417,2026-086E,2026-07-08T09:03:52.041888,15.33470292,.00009627,97.2837,225.8358,133.8821,226.2501,0,U,68770,999,1232,.38503782E-3,.12386E-3,0
STARLINK-36759,2026-086F,2026-07-08T09:07:47.235648,15.33463726,.00002172,97.2848,225.8299,260.8219,99.2999,0,U,68771,999,1232,.34934171E-3,.11226E-3,0
STARLINK-37399,2026-086G,2026-07-08T08:59:56.330592,15.33430529,.00039603,97.2841,225.8356,278.8396,81.2398,0,U,68772,999,1232,.51417848E-3,.16557E-3,0
STARLINK-37281,2026-086H,2026-07-08T08:56:01.933440,15.33452270,.00016665,97.2855,225.8417,135.4820,224.6557,0,U,68773,999,1232,.61811702E-3,.19938E-3,0
STARLINK-37381,2026-086J,2026-07-08T08:52:07.655520,15.33463674,.00016695,97.2841,225.8455,104.4181,255.7247,0,U,68774,999,1232,.66204061E-3,.21372E-3,0
STARLINK-37418,2026-086K,2026-07-08T08:48:12.081600,15.33470074,.000137,97.2839,225.8483,98.2976,261.8422,0,U,68775,999,1232,.66816687E-3,.21575E-3,0
STARLINK-37393,2026-086L,2026-07-08T08:40:22.184832,15.33464780,.00003719,97.2840,225.8556,220.3714,139.7501,0,U,68776,999,1232,.67558549E-3,.21812E-3,0
STARLINK-37400,2026-086M,2026-07-08T08:32:32.390016,15.33466117,.00005462,97.2835,225.8628,243.9995,116.1191,0,U,68777,999,1232,.30844746E-3,.9902E-4,0
STARLINK-37389,2026-086N,2026-07-08T08:44:17.662848,15.33462426,.00001572,97.2837,225.8516,134.6763,225.4492,0,U,68778,999,1232,.33387805E-3,.10725E-3,0
STARLINK-37391,2026-086P,2026-07-07T21:38:41.477280,15.33455441,.00031445,97.2879,225.4124,18.7103,341.4254,0,U,68779,999,1225,.48252959E-3,.15542E-3,0
STARLINK-37266,2026-086Q,2026-07-08T13:10:31.023552,15.33468583,.00005695,97.2839,226.0577,240.3971,119.7215,0,U,68780,999,1235,.19759176E-3,.6314E-4,0
STARLINK-37236,2026-086R,2026-07-08T13:06:36.294624,15.33470810,.00037104,97.2835,226.0621,273.7335,86.3483,0,U,68781,999,1235,.55363662E-3,.17858E-3,0
STARLINK-37390,2026-086S,2026-07-08T13:02:40.848576,15.33497674,.00014177,97.2855,226.0681,117.7631,242.3756,0,U,68782,999,1235,.6276003E-3,.20274E-3,0
STARLINK-37364,2026-086T,2026-07-08T01:57:05.650560,15.33452272,.00020359,97.2828,225.6217,82.6688,277.4786,0,U,68783,999,1228,.69710613E-3,.22503E-3,0
